start=new Date('2021-11-18T00:00:00.000Z').valueOf();
sats=[{"CENTER_NAME":"EARTH","MEAN_ANOMALY":"299.9780","REV_AT_EPOCH":"7177","MEAN_MOTION_DOT":"-0.00000021","EPOCH":"2021-11-17T12:58:21.653760","ECCENTRICITY":"0.00016250","TLE_LINE1":"1 46043U 20055S   21321.54052840 -.00000021  00000-0  17496-4 0  9991","ELEMENT_SET_NO":"999","MEAN_ELEMENT_THEORY":"SGP4","ARG_OF_PERICENTER":"60.1370","MEAN_MOTION":"15.06396572","OBJECT_ID":"2020-055S","REF_FRAME":"TEME","EPHEMERIS_TYPE":"0","MEAN_MOTION_DDOT":"0.0000000000000","PERIAPSIS":"546.099","COUNTRY_CODE":"US","SITE":"AFETR","LAUNCH_DATE":"2020-08-07","PERIOD":"95.592","SEMIMAJOR_AXIS":"6925.359","APOAPSIS":"548.349","BSTAR":"0.00001749600000","CLASSIFICATION_TYPE":"U","INCLINATION":"53.0560","GP_ID":"189974536","OBJECT_TYPE":"PAYLOAD","TIME_SYSTEM":"UTC","NORAD_CAT_ID":"46043","DECAY_DATE":null,"FILE":"3217982","OBJECT_NAME":"STARLINK-1582","RA_OF_ASC_NODE":"348.7677","RCS_SIZE":"LARGE","TLE_LINE2":"2 46043  53.0560 348.7677 0001625  60.1370 299.9780 15.06396572 71771"},{"RA_OF_ASC_NODE":"348.9906","OBJECT_NAME":"STARLINK-1584","RCS_SIZE":"LARGE","TLE_LINE2":"2 46044  53.0554 348.9906 0001602  63.3841 296.7312 15.06398404 71777","FILE":"3217982","DECAY_DATE":null,"TIME_SYSTEM":"UTC","NORAD_CAT_ID":"46044","OBJECT_TYPE":"PAYLOAD","CLASSIFICATION_TYPE":"U","INCLINATION":"53.0554","GP_ID":"189974786","APOAPSIS":"548.328","BSTAR":"0.00015548000000","SITE":"AFETR","COUNTRY_CODE":"US","SEMIMAJOR_AXIS":"6925.353","LAUNCH_DATE":"2020-08-07","PERIOD":"95.592","EPHEMERIS_TYPE":"0","MEAN_MOTION_DDOT":"0.0000000000000","PERIAPSIS":"546.109","OBJECT_ID":"2020-055T","REF_FRAME":"TEME","ARG_OF_PERICENTER":"63.3841","MEAN_MOTION":"15.06398404","ECCENTRICITY":"0.00016020","ELEMENT_SET_NO":"999","TLE_LINE1":"1 46044U 20055T   21321.48892198  .00002035  00000-0  15548-3 0  9994","MEAN_ELEMENT_THEORY":"SGP4","REV_AT_EPOCH":"7177","MEAN_MOTION_DOT":"0.00002035","EPOCH":"2021-11-17T11:44:02.859072","CENTER_NAME":"EARTH","MEAN_ANOMALY":"296.7312"},{"OBJECT_TYPE":"PAYLOAD","BSTAR":"0.00001452900000","APOAPSIS":"548.236","CLASSIFICATION_TYPE":"U","INCLINATION":"53.0550","GP_ID":"189944952","FILE":"3217692","OBJECT_NAME":"STARLINK-1591","RA_OF_ASC_NODE":"349.5429","TLE_LINE2":"2 46045  53.0550 349.5429 0001473  54.3369 305.7757 15.06399218 71736","RCS_SIZE":"LARGE","NORAD_CAT_ID":"46045","TIME_SYSTEM":"UTC","DECAY_DATE":null,"ELEMENT_SET_NO":"999","TLE_LINE1":"1 46045U 20055U   21321.36728946 -.00000065  00000-0  14529-4 0  9992","ECCENTRICITY":"0.00014730","MEAN_ELEMENT_THEORY":"SGP4","ARG_OF_PERICENTER":"54.3369","MEAN_MOTION":"15.06399218","MEAN_ANOMALY":"305.7757","CENTER_NAME":"EARTH","REV_AT_EPOCH":"7173","MEAN_MOTION_DOT":"-0.00000065","EPOCH":"2021-11-17T08:48:53.809344","LAUNCH_DATE":"2020-08-07","PERIOD":"95.592","SEMIMAJOR_AXIS":"6925.351","SITE":"AFETR","COUNTRY_CODE":"US","OBJECT_ID":"2020-055U","REF_FRAME":"TEME","EPHEMERIS_TYPE":"0","PERIAPSIS":"546.196","MEAN_MOTION_DDOT":"0.0000000000000"},{"FILE":"3217982","RA_OF_ASC_NODE":"321.0711","OBJECT_NAME":"STARLINK-1514","RCS_SIZE":"LARGE","TLE_LINE2":"2 46046  53.0554 321.0711 0001839 166.7833 193.3225 15.54497759 72150","TIME_SYSTEM":"UTC","NORAD_CAT_ID":"46046","DECAY_DATE":null,"OBJECT_TYPE":"PAYLOAD","APOAPSIS":"404.862","BSTAR":"0.00058518000000","CLASSIFICATION_TYPE":"U","INCLINATION":"53.0554","GP_ID":"189975788","SITE":"AFETR","COUNTRY_CODE":"US","SEMIMAJOR_AXIS":"6781.750","LAUNCH_DATE":"2020-08-07","PERIOD":"92.634","OBJECT_ID":"2020-055V","REF_FRAME":"TEME","EPHEMERIS_TYPE":"0","MEAN_MOTION_DDOT":"0.0000000000000","PERIAPSIS":"402.368","ECCENTRICITY":"0.00018390","TLE_LINE1":"1 46046U 20055V   21321.70387302  .00038926  00000-0  58518-3 0  9999","ELEMENT_SET_NO":"999","MEAN_ELEMENT_THEORY":"SGP4","ARG_OF_PERICENTER":"166.7833","MEAN_MOTION":"15.54497759","CENTER_NAME":"EARTH","MEAN_ANOMALY":"193.3225","REV_AT_EPOCH":"7215","MEAN_MOTION_DOT":"0.00038926","EPOCH":"2021-11-17T16:53:34.628928"},{"OBJECT_TYPE":"PAYLOAD","APOAPSIS":"548.324","BSTAR":"0.00011072000000","CLASSIFICATION_TYPE":"U","INCLINATION":"53.0561","GP_ID":"189945455","FILE":"3217692","OBJECT_NAME":"STARLINK-1524","RA_OF_ASC_NODE":"339.7598","RCS_SIZE":"LARGE","TLE_LINE2":"2 46047  53.0561 339.7598 0001595  57.0635 303.0507 15.06397950 71880","TIME_SYSTEM":"UTC","NORAD_CAT_ID":"46047","DECAY_DATE":null,"ECCENTRICITY":"0.00015950","ELEMENT_SET_NO":"999","TLE_LINE1":"1 46047U 20055W   21321.32029253  .00001368  00000-0  11072-3 0  9990","MEAN_ELEMENT_THEORY":"SGP4","ARG_OF_PERICENTER":"57.0635","MEAN_MOTION":"15.06397950","CENTER_NAME":"EARTH","MEAN_ANOMALY":"303.0507","REV_AT_EPOCH":"7188","MEAN_MOTION_DOT":"0.00001368","EPOCH":"2021-11-17T07:41:13.274592","SITE":"AFETR","COUNTRY_CODE":"US","LAUNCH_DATE":"2020-08-07","PERIOD":"95.592","SEMIMAJOR_AXIS":"6925.355","OBJECT_ID":"2020-055W","REF_FRAME":"TEME","EPHEMERIS_TYPE":"0","MEAN_MOTION_DDOT":"0.0000000000000","PERIAPSIS":"546.115"},{"MEAN_MOTION_DDOT":"0.0000000000000","PERIAPSIS":"545.979","EPHEMERIS_TYPE":"0","REF_FRAME":"TEME","OBJECT_ID":"2020-055X","SITE":"AFETR","COUNTRY_CODE":"US","PERIOD":"95.592","LAUNCH_DATE":"2020-08-07","SEMIMAJOR_AXIS":"6925.341","EPOCH":"2021-11-17T20:20:14.070048","MEAN_MOTION_DOT":"0.00004050","REV_AT_EPOCH":"7194","CENTER_NAME":"EARTH","MEAN_ANOMALY":"290.6625","MEAN_MOTION":"15.06402548","ARG_OF_PERICENTER":"69.4553","MEAN_ELEMENT_THEORY":"SGP4","ECCENTRICITY":"0.00017710","TLE_LINE1":"1 46048U 20055X   21321.84738507  .00004050  00000-0  29060-3 0  9994","ELEMENT_SET_NO":"999","DECAY_DATE":null,"TIME_SYSTEM":"UTC","NORAD_CAT_ID":"46048","RCS_SIZE":"LARGE","TLE_LINE2":"2 46048  53.0532 337.3825 0001771  69.4553 290.6625 15.06402548 71947","OBJECT_NAME":"STARLINK-1527","RA_OF_ASC_NODE":"337.3825","FILE":"3217982","INCLINATION":"53.0532","GP_ID":"189974286","CLASSIFICATION_TYPE":"U","APOAPSIS":"548.432","BSTAR":"0.00029060000000","OBJECT_TYPE":"PAYLOAD"},{"CLASSIFICATION_TYPE":"U","INCLINATION":"53.0554","GP_ID":"189975035","APOAPSIS":"548.232","BSTAR":"-0.00000345590000","OBJECT_TYPE":"PAYLOAD","DECAY_DATE":null,"TIME_SYSTEM":"UTC","NORAD_CAT_ID":"46049","OBJECT_NAME":"STARLINK-1530","RA_OF_ASC_NODE":"338.8946","RCS_SIZE":"LARGE","TLE_LINE2":"2 46049  53.0554 338.8946 0001468  66.4877 293.6266 15.06399334 71921","FILE":"3217982","MEAN_MOTION_DOT":"-0.00000333","REV_AT_EPOCH":"7192","EPOCH":"2021-11-17T12:17:13.653312","CENTER_NAME":"EARTH","MEAN_ANOMALY":"293.6266","ARG_OF_PERICENTER":"66.4877","MEAN_MOTION":"15.06399334","ECCENTRICITY":"0.00014680","ELEMENT_SET_NO":"999","TLE_LINE1":"1 46049U 20055Y   21321.51196358 -.00000333  00000-0 -34559-5 0  9994","MEAN_ELEMENT_THEORY":"SGP4","EPHEMERIS_TYPE":"0","MEAN_MOTION_DDOT":"0.0000000000000","PERIAPSIS":"546.199","OBJECT_ID":"2020-055Y","REF_FRAME":"TEME","SITE":"AFETR","COUNTRY_CODE":"US","PERIOD":"95.592","LAUNCH_DATE":"2020-08-07","SEMIMAJOR_AXIS":"6925.351"},{"PERIOD":"92.582","LAUNCH_DATE":"2020-08-07","SEMIMAJOR_AXIS":"6779.202","SITE":"AFETR","COUNTRY_CODE":"US","PERIAPSIS":"400.267","MEAN_MOTION_DDOT":"0.0000000000000","EPHEMERIS_TYPE":"0","REF_FRAME":"TEME","OBJECT_ID":"2020-055Z","MEAN_MOTION":"15.55374321","ARG_OF_PERICENTER":"36.8281","MEAN_ELEMENT_THEORY":"SGP4","TLE_LINE1":"1 46050U 20055Z   21321.73439344  .00032321  00000-0  47215-3 0  9996","ELEMENT_SET_NO":"999","ECCENTRICITY":"0.00011790","EPOCH":"2021-11-17T17:37:31.593216","REV_AT_EPOCH":"7218","MEAN_MOTION_DOT":"0.00032321","MEAN_ANOMALY":"323.2810","CENTER_NAME":"EARTH","TLE_LINE2":"2 46050  53.0556 321.5992 0001179  36.8281 323.2810 15.55374321 72181","RCS_SIZE":"LARGE","RA_OF_ASC_NODE":"321.5992","OBJECT_NAME":"STARLINK-1535","FILE":"3217982","DECAY_DATE":null,"NORAD_CAT_ID":"46050","TIME_SYSTEM":"UTC","OBJECT_TYPE":"PAYLOAD","INCLINATION":"53.0556","GP_ID":"189975288","CLASSIFICATION_TYPE":"U","BSTAR":"0.00047215000000","APOAPSIS":"401.866"},{"NORAD_CAT_ID":"46051","TIME_SYSTEM":"UTC","DECAY_DATE":null,"FILE":"3217982","RA_OF_ASC_NODE":"337.8356","OBJECT_NAME":"STARLINK-1540","TLE_LINE2":"2 46051  53.0551 337.8356 0001844  60.2754 299.8419 15.06388769 71961","RCS_SIZE":"LARGE","BSTAR":"-0.00000863470000","APOAPSIS":"548.525","CLASSIFICATION_TYPE":"U","INCLINATION":"53.0551","GP_ID":"189974537","OBJECT_TYPE":"PAYLOAD","OBJECT_ID":"2020-055AA","REF_FRAME":"TEME","EPHEMERIS_TYPE":"0","PERIAPSIS":"545.971","MEAN_MOTION_DDOT":"0.0000000000000","PERIOD":"95.593","LAUNCH_DATE":"2020-08-07","SEMIMAJOR_AXIS":"6925.383","SITE":"AFETR","COUNTRY_CODE":"US","MEAN_ANOMALY":"299.8419","CENTER_NAME":"EARTH","MEAN_MOTION_DOT":"-0.00000410","REV_AT_EPOCH":"7196","EPOCH":"2021-11-17T17:56:55.666464","ELEMENT_SET_NO":"999","TLE_LINE1":"1 46051U 20055AA  21321.74786651 -.00000410  00000-0 -86347-5 0  9991","ECCENTRICITY":"0.00018440","MEAN_ELEMENT_THEORY":"SGP4","ARG_OF_PERICENTER":"60.2754","MEAN_MOTION":"15.06388769"},{"EPHEMERIS_TYPE":"0","PERIAPSIS":"546.154","MEAN_MOTION_DDOT":"0.0000000000000","OBJECT_ID":"2020-055AB","REF_FRAME":"TEME","PERIOD":"95.592","LAUNCH_DATE":"2020-08-07","SEMIMAJOR_AXIS":"6925.349","COUNTRY_CODE":"US","SITE":"AFETR","REV_AT_EPOCH":"7186","MEAN_MOTION_DOT":"0.00000078","EPOCH":"2021-11-17T08:02:27.151008","MEAN_ANOMALY":"295.2953","CENTER_NAME":"EARTH","ARG_OF_PERICENTER":"64.8195","MEAN_MOTION":"15.06399901","TLE_LINE1":"1 46052U 20055AB  21321.33503647  .00000078  00000-0  24106-4 0  9991","ELEMENT_SET_NO":"999","ECCENTRICITY":"0.00015300","MEAN_ELEMENT_THEORY":"SGP4","DECAY_DATE":null,"NORAD_CAT_ID":"46052","TIME_SYSTEM":"UTC","RA_OF_ASC_NODE":"339.6852","OBJECT_NAME":"STARLINK-1541","TLE_LINE2":"2 46052  53.0545 339.6852 0001530  64.8195 295.2953 15.06399901 71869","RCS_SIZE":"LARGE","FILE":"3217692","CLASSIFICATION_TYPE":"U","GP_ID":"189944703","INCLINATION":"53.0545","BSTAR":"0.00002410600000","APOAPSIS":"548.273","OBJECT_TYPE":"PAYLOAD"}];
